NORAD_CAT_ID,OBJECT_NAME,OBJECT_TYPE,EPOCH,MEAN_MOTION,ECCENTRICITY,INCLINATION,RA_OF_ASC_NODE,ARG_OF_PERICENTER,MEAN_ANOMALY,BSTAR,MEAN_MOTION_DOT,MEAN_MOTION_DDOT,TLE_LINE0,TLE_LINE1,TLE_LINE2,SEMIMAJOR_AXIS,PERIOD,APOGEE,PERIGEE,DECAYED
55408.0,STARLINK-5092,PAYLOAD,2024-04-22 19:37:11,14.98295338,0.0003154,69.9998,353.9801,279.2192,80.861,-0.00036171,-4.402e-05,0.0,0 STARLINK-5092,1 55408U 23014T   24113.81749192 -.00004402  00000-0 -36171-3 0  9997,2 55408  69.9998 353.9801 0003154 279.2192  80.8610 14.98295338 68377,6950.3,96.109,574.357,569.973,0.0
55408.0,STARLINK-5092,PAYLOAD,2024-04-22 22:49:27,14.98291133,0.0002185,70.0019,353.6456,250.8042,109.2881,-0.00032133,-3.921e-05,0.0,0 STARLINK-5092,1 55408U 23014T   24113.95101479 -.00003921  00000-0 -32133-3 0  9991,2 55408  70.0019 353.6456 0002185 250.8042 109.2881 14.98291133 69331,6950.313,96.109,573.697,570.659,0.0
55408.0,STARLINK-5092,PAYLOAD,2024-04-23 02:01:43,14.98293009,0.0002203,70.0018,353.3089,256.8943,103.197,-0.00029174,-3.569e-05,0.0,0 STARLINK-5092,1 55408U 23014T   24114.08453589 -.00003569  00000-0 -29174-3 0  9997,2 55408  70.0018 353.3089 0002203 256.8943 103.1970 14.98293009 69354,6950.307,96.109,573.703,570.641,0.0
55408.0,STARLINK-5092,PAYLOAD,2024-04-23 19:39:09,14.98334398,0.0002184,70.0024,351.4585,249.4906,110.6019,2.4715e-05,2.02e-06,0.0,0 STARLINK-5092,1 55408U 23014T   24114.81886504  .00000202  00000-0  24715-4 0  9991,2 55408  70.0024 351.4585 0002184 249.4906 110.6019 14.98334398 68528,6950.179,96.107,573.562,570.526,0.0
55408.0,STARLINK-5092,PAYLOAD,2024-04-23 21:15:17,14.98345118,0.0002382,70.002,351.2904,237.7192,122.3737,0.00011754,1.31e-05,0.0,0 STARLINK-5092,1 55408U 23014T   24114.88561513  .00001310  00000-0  11754-3 0  9997,2 55408  70.0020 351.2904 0002382 237.7192 122.3737 14.98345118 69478,6950.146,96.106,573.667,570.356,0.0
55408.0,STARLINK-5092,PAYLOAD,2024-04-24 02:03:40,14.98350454,0.0002555,70.0008,350.784,254.6767,105.411,0.00014293,1.614e-05,0.0,0 STARLINK-5092,1 55408U 23014T   24115.08588984  .00001614  00000-0  14293-3 0  9999,2 55408  70.0008 350.7840 0002555 254.6767 105.4110 14.98350454 68560,6950.13,96.106,573.77,570.219,0.0
55408.0,STARLINK-5092,PAYLOAD,2024-04-24 21:17:18,14.98323578,0.0002406,70.0015,348.7636,259.9345,100.1543,0.00043409,5.089e-05,0.0,0 STARLINK-5092,1 55408U 23014T   24115.88701749  .00005089  00000-0  43409-3 0  9994,2 55408  70.0015 348.7636 0002406 259.9345 100.1543 14.98323578 68685,6950.213,96.107,573.75,570.406,0.0
55408.0,STARLINK-5092,PAYLOAD,2024-04-25 02:05:42,14.98330066,0.0002464,70.001,348.2559,262.7459,97.342,0.00037769,4.416e-05,0.0,0 STARLINK-5092,1 55408U 23014T   24116.08729422  .00004416  00000-0  37769-3 0  9990,2 55408  70.0010 348.2559 0002464 262.7459  97.3420 14.98330066 69650,6950.193,96.107,573.77,570.345,0.0
55408.0,STARLINK-5092,PAYLOAD,2024-04-25 21:19:18,14.98343298,0.0002402,70.0012,346.2367,243.6264,116.4649,-8.5141e-05,-1.109e-05,0.0,0 STARLINK-5092,1 55408U 23014T   24116.88841377 -.00001109  00000-0 -85141-4 0  9998,2 55408  70.0012 346.2367 0002402 243.6264 116.4649 14.98343298 68837,6950.152,96.106,573.686,570.347,0.0
55408.0,STARLINK-5092,PAYLOAD,2024-04-26 08:32:15,14.98345598,0.0002324,70.0016,345.0564,288.3747,71.716,-0.00015494,-1.942e-05,0.0,0 STARLINK-5092,1 55408U 23014T   24117.35573221 -.00001942  00000-0 -15494-3 0  9999,2 55408  70.0016 345.0564 0002324 288.3747  71.7160 14.98345598 69840,6950.145,96.106,573.625,570.394,0.0
55408.0,STARLINK-5092,PAYLOAD,2024-04-26 16:32:55,14.98335579,0.000242,70.0016,344.2183,268.8442,91.244,-6.9726e-05,-9.25e-06,0.0,0 STARLINK-5092,1 55408U 23014T   24117.68953249 -.00000925  00000-0 -69726-4 0  9995,2 55408  70.0016 344.2183 0002420 268.8442  91.2440 14.98335579 68957,6950.176,96.107,573.723,570.359,0.0
55408.0,STARLINK-5092,PAYLOAD,2024-04-27 08:34:16,14.98335053,0.000287,69.9998,342.5325,267.7421,92.341,-0.00017422,-2.171e-05,0.0,0 STARLINK-5092,1 55408U 23014T   24118.35713064 -.00002171  00000-0 -17422-3 0  9999,2 55408  69.9998 342.5325 0002870 267.7421  92.3410 14.98335053 69997,6950.177,96.107,574.037,570.048,0.0
55408.0,STARLINK-5092,PAYLOAD,2024-04-27 21:23:20,14.98327255,0.0002723,69.9996,341.1843,266.2168,93.8679,9.703e-07,-8.1e-07,0.0,0 STARLINK-5092,1 55408U 23014T   24118.89121189 -.00000081  00000-0  97030-6 0  9992,2 55408  69.9996 341.1843 0002723 266.2168  93.8679 14.98327255 69138,6950.201,96.107,573.959,570.174,0.0
55408.0,STARLINK-5092,PAYLOAD,2024-04-28 15:00:49,14.98328126,0.0002849,69.9996,339.3328,271.1336,88.9497,1.4973e-06,-7.5e-07,0.0,0 STARLINK-5092,1 55408U 23014T   24119.62557139 -.00000075  00000-0  14973-5 0  9999,2 55408  69.9996 339.3328 0002849 271.1336  88.9497 14.98328126 70184,6950.199,96.107,574.044,570.084,0.0
55408.0,STARLINK-5092,PAYLOAD,2024-04-28 21:25:21,14.98329311,0.0002997,69.9991,338.6604,270.1174,89.9641,-1.2255e-06,-1.08e-06,0.0,0 STARLINK-5092,1 55408U 23014T   24119.89261135 -.00000108  00000-0 -12255-5 0  9995,2 55408  69.9991 338.6604 0002997 270.1174  89.9641 14.98329311 69289,6950.195,96.107,574.143,569.977,0.0
55408.0,STARLINK-5092,PAYLOAD,2024-04-29 15:02:50,14.98329297,0.0002891,69.9998,336.8092,269.2604,90.8224,9.0664e-05,9.89e-06,0.0,0 STARLINK-5092,1 55408U 23014T   24120.62696823  .00000989  00000-0  90664-4 0  9998,2 55408  69.9998 336.8092 0002891 269.2604  90.8224 14.98329297 70336,6950.195,96.107,574.069,570.051,0.0
55408.0,STARLINK-5092,PAYLOAD,2024-04-29 21:27:22,14.98327767,0.0002882,69.9995,336.1363,267.614,92.4689,1.6577e-05,1.05e-06,0.0,0 STARLINK-5092,1 55408U 23014T   24120.89401147  .00000105  00000-0  16577-4 0  9991,2 55408  69.9995 336.1363 0002882 267.6140  92.4689 14.98327767 69436,6950.2,96.107,574.068,570.062,0.0
55408.0,STARLINK-5092,PAYLOAD,2024-04-30 07:04:12,14.98317305,0.0002732,69.999,335.125,272.4633,87.6214,-0.00010861,-1.388e-05,0.0,0 STARLINK-5092,1 55408U 23014T   24121.29458373 -.00001388  00000-0 -10861-3 0  9994,2 55408  69.9990 335.1250 0002732 272.4633  87.6214 14.98317305 69493,6950.232,96.108,573.996,570.198,0.0
55408.0,STARLINK-5092,PAYLOAD,2024-04-30 15:04:52,14.9831366,0.0002613,70.0005,334.283,271.4298,88.6562,-4.1385e-05,-5.86e-06,0.0,0 STARLINK-5092,1 55408U 23014T   24121.62838587 -.00000586  00000-0 -41385-4 0  9995,2 55408  70.0005 334.2830 0002613 271.4298  88.6562 14.98313660 70489,6950.243,96.108,573.925,570.292,0.0
55408.0,STARLINK-5092,PAYLOAD,2024-04-30 21:29:25,14.98314444,0.0003004,69.9992,333.6117,266.2131,93.8685,-0.00011818,-1.502e-05,0.0,0 STARLINK-5092,1 55408U 23014T   24121.89542986 -.00001502  00000-0 -11818-3 0  9995,2 55408  69.9992 333.6117 0003004 266.2131  93.8685 14.98314444 70525,6950.241,96.108,574.194,570.018,0.0
55408.0,STARLINK-5092,PAYLOAD,2024-05-01 07:06:13,14.98321531,0.0003073,69.9992,332.6014,267.8932,92.1875,-0.00011276,-1.438e-05,0.0,0 STARLINK-5092,1 55408U 23014T   24122.29598829 -.00001438  00000-0 -11276-3 0  9993,2 55408  69.9992 332.6014 0003073 267.8932  92.1875 14.98321531 69641,6950.219,96.108,574.22,569.948,0.0
55408.0,STARLINK-5092,PAYLOAD,2024-05-01 19:55:17,14.98324913,0.0003181,69.9987,331.2537,270.959,89.1205,2.5876e-05,2.16e-06,0.0,0 STARLINK-5092,1 55408U 23014T   24122.83006392  .00000216  00000-0  25876-4 0  9995,2 55408  69.9987 331.2537 0003181 270.9590  89.1205 14.98324913 69724,6950.209,96.107,574.284,569.863,0.0
55408.0,STARLINK-5092,PAYLOAD,2024-05-02 07:08:13,14.98330825,0.0003157,69.9987,330.0751,271.7202,88.3596,7.5595e-05,8.09e-06,0.0,0 STARLINK-5092,1 55408U 23014T   24123.29737994  .00000809  00000-0  75595-4 0  9996,2 55408  69.9987 330.0751 0003157 271.7202  88.3596 14.98330825 69791,6950.19,96.107,574.25,569.861,0.0
55408.0,STARLINK-5092,PAYLOAD,2024-05-02 15:08:53,14.98326257,0.0003224,69.9986,329.2332,270.5622,89.5167,0.00023124,2.667e-05,0.0,0 STARLINK-5092,1 55408U 23014T   24123.63117911  .00002667  00000-0  23124-3 0  9999,2 55408  69.9986 329.2332 0003224 270.5622  89.5167 14.98326257 70785,6950.204,96.107,574.31,569.829,0.0
55408.0,STARLINK-5092,PAYLOAD,2024-05-03 13:34:46,14.98338938,0.0003103,69.9982,326.8766,270.6165,89.4639,9.5718e-05,1.049e-05,0.0,0 STARLINK-5092,1 55408U 23014T   24124.56581221  .00001049  00000-0  95718-4 0  9993,2 55408  69.9982 326.8766 0003103 270.6165  89.4639 14.98338938 69986,6950.165,96.106,574.187,569.874,0.0
55408.0,STARLINK-5092,PAYLOAD,2024-05-03 15:10:54,14.98339012,0.0003107,69.9982,326.7082,270.5696,89.5107,9.4667e-05,1.037e-05,0.0,0 STARLINK-5092,1 55408U 23014T   24124.63257172  .00001037  00000-0  94667-4 0  9995,2 55408  69.9982 326.7082 0003107 270.5696  89.5107 14.98339012 70930,6950.165,96.106,574.189,569.871,0.0
55408.0,STARLINK-5092,PAYLOAD,2024-05-03 21:35:26,14.9834233,0.0003119,69.9983,326.0349,270.4571,89.6231,8.257e-05,8.93e-06,0.0,0 STARLINK-5092,1 55408U 23014T   24124.89960799  .00000893  00000-0  82570-4 0  9998,2 55408  69.9983 326.0349 0003119 270.4571  89.6231 14.98342330 70974,6950.155,96.106,574.188,569.852,0.0
55408.0,STARLINK-5092,PAYLOAD,2024-05-04 16:47:04,14.99814139,0.0010325,69.9982,324.0099,273.7835,86.2144,0.015842,0.00202261,0.0,0 STARLINK-5092,1 55408U 23014T   24125.69936146  .00202261  00000-0  15842-1 0  9994,2 55408  69.9982 324.0099 0010325 273.7835  86.2144 14.99814139 70157,6945.607,96.012,574.643,560.301,0.0
55408.0,STARLINK-5092,PAYLOAD,2024-05-05 06:00:00,14.98339123,0.000318,70.0001,322.6298,272.8442,169.2272,-0.0020402,-0.00024358,0.0,0 STARLINK-5092,1 55408U 23014T   24126.25001157 -.00024358  00000-0 -20402-2 0  9992,2 55408  70.0001 322.6298 0003180 272.8442 169.2272 14.98339123 70240,6950.165,96.106,574.24,569.82,0.0
55408.0,STARLINK-5092,PAYLOAD,2024-05-05 12:02:52,14.98150766,0.000911,69.9988,321.9944,285.8569,74.1585,-0.0021719,-0.00025815,0.0,0 STARLINK-5092,1 55408U 23014T   24126.50199489 -.00025815  00000-0 -21719-2 0  9997,2 55408  69.9988 321.9944 0009110 285.8569  74.1585 14.98150766 70272,6950.747,96.118,578.944,566.28,0.0
